STARLINK-1701           
1 46550U 20070U   21229.33952495 -.00000975  00000-0 -46603-4 0  9991
2 46550  53.0546  92.6708 0001590 108.3928 251.7234 15.06393880 48495
STARLINK-1649           
1 46552U 20070W   21229.56391025 -.00001211  00000-0 -62390-4 0  9999
2 46552  53.0558  76.6678 0002231  78.3322 281.7918 15.06391192 48749
STARLINK-1664           
1 46553U 20070X   21229.79103492  .00001240  00000-0  10209-3 0  9995
2 46553  53.0546  60.6509 0002103  95.9086 264.2142 15.06409752 48997
STARLINK-1671           
1 46554U 20070Y   21229.31326501 -.00001352  00000-0 -71866-4 0  9995
2 46554  53.0563  77.7988 0001962  85.9188 274.2025 15.06396746 48709
STARLINK-1674           
1 46555U 20070Z   21229.51919152 -.00000894  00000-0 -41119-4 0  9996
2 46555  53.0564  51.8657 0001830  99.3099 260.8097 15.06397005 49082
STARLINK-1676           
1 46556U 20070AA  21229.04096251 -.00000257  00000-0  16749-5 0  9995
2 46556  53.0553  94.0111 0001906  88.1283 271.9924 15.06394898 48459
STARLINK-1679           
1 46557U 20070AB  21229.54916822 -.00000943  00000-0 -44394-4 0  9995
2 46557  53.0548  76.7287 0002131  88.4482 271.6751 15.06394001 48743
STARLINK-1680           
1 46558U 20070AC  21229.62288839  .00000739  00000-0  68539-4 0  9993
2 46558  53.0557  76.4076 0001945  93.7704 266.3507 15.06403170 48765
STARLINK-1681           
1 46559U 20070AD  21229.67770317  .00000727  00000-0  67731-4 0  9996
2 46559  53.0545  61.1506 0001789  95.9205 264.1988 15.06402942 48976
STARLINK-1706           
1 46560U 20070AE  21229.30589435 -.00001089  00000-0 -54240-4 0  9992
2 46560  53.0552  77.8245 0001915  93.7680 266.3528 15.06398048 48700
STARLINK-1709           
1 46561U 20070AF  21229.32063247  .00000751  00000-0  69334-4 0  9996
2 46561  53.0548  77.7583 0001872 105.8923 254.2273 15.06397536 48701
STARLINK-1714           
1 46562U 20070AG  21229.52198985  .00000639  00000-0  61769-4 0  9996
2 46562  53.0548  71.8507 0001489 102.2814 257.8342 15.06397770 48804
STARLINK-1730           
1 46563U 20070AH  21229.30450881 -.00000877  00000-0 -40003-4 0  9993
2 46563  53.0538  72.8245 0001833 108.0343 252.0845 15.06395545 48777
STARLINK-1733           
1 46564U 20070AJ  21229.55146971  .00000797  00000-0  72421-4 0  9991
2 46564  53.0551  71.7191 0002043  89.4652 270.6571 15.06407466 48813
STARLINK-1735           
1 46565U 20070AK  21229.26398209  .00000566  00000-0  56889-4 0  9997
2 46565  53.0541  72.9216 0002200  86.5595 273.5645 15.06394065 48468
STARLINK-1740           
1 46566U 20070AL  21228.98383483  .00000592  00000-0  58634-4 0  9993
2 46566  53.0554  74.2723 0001998 103.7037 256.4174 15.06398582 48721
STARLINK-1741           
1 46567U 20070AM  21229.61045260  .00000844  00000-0  75551-4 0  9990
2 46567  53.0548  71.4629 0001646  98.4364 261.6812 15.06402092 48822
STARLINK-1743           
1 46568U 20070AN  21229.40546768  .00108555  00000-0  49009-2 0  9992
2 46568  53.0536  89.6148 0001167 111.0851 249.0269 15.20121664 48542
STARLINK-1747           
1 46569U 20070AP  21229.69152329  .00000890  00000-0  78672-4 0  9993
2 46569  53.0543  71.0889 0002122  90.1642 269.9590 15.06406152 48534
STARLINK-1748           
1 46570U 20070AQ  21229.26765089  .00000966  00000-0  83771-4 0  9991
2 46570  53.0533  72.9874 0001969  90.1572 269.9642 15.06390882 48764
STARLINK-1753           
1 46571U 20070AR  21229.69521924 -.00000878  00000-0 -40052-4 0  9996
2 46571  53.0563  71.0829 0002065  88.5412 271.5813 15.06397175 48839
STARLINK-1531           
1 46572U 20070AS  21229.73023313  .00000757  00000-0  69744-4 0  9994
2 46572  53.0548  90.9192 0002144  80.0541 280.0690 15.06396720 48578
STARLINK-1650           
1 46573U 20070AT  21229.30957793 -.00001191  00000-0 -61065-4 0  9999
2 46573  53.0542  77.8026 0001777  87.1411 272.9781 15.06393177 48707
STARLINK-1660           
1 46574U 20070AU  21229.62656629  .00000704  00000-0  66154-4 0  9990
2 46574  53.0543  76.3900 0001954  83.9548 276.1663 15.06396781 48750
STARLINK-1675           
1 46575U 20070AV  21229.55237404  .00000684  00000-0  64819-4 0  9992
2 46575  53.0566  51.7204 0001809  95.1236 264.9959 15.06406642 49086
STARLINK-1677           
1 46576U 20070AW  21229.55286114  .00000733  00000-0  68087-4 0  9991
2 46576  53.0542  76.7132 0002044  91.2296 268.8927 15.06401389 48746
STARLINK-1682           
1 46577U 20070AX  21229.31695161 -.00000971  00000-0 -46261-4 0  9998
2 46577  53.0548  77.7722 0002069  86.5054 273.6172 15.06394422 48706
STARLINK-1683           
1 46578U 20070AY  21229.55883032  .00000456  00000-0  49523-4 0  9991
2 46578  53.0549  61.6921 0002000  95.9670 264.1547 15.06398315 48957
STARLINK-1705           
1 46579U 20070AZ  21229.70028680 -.00000731  00000-0 -30156-4 0  9999
2 46579  53.0561  76.0584 0002095  89.5846 270.5383 15.06395920 48740
STARLINK-1708           
1 46580U 20070BA  21229.28010211  .00000693  00000-0  65441-4 0  9995
2 46580  53.0542  77.9346 0001792  98.0788 262.0405 15.06398217 48709
STARLINK-1712           
1 46581U 20070BB  21228.98015712  .00000700  00000-0  65880-4 0  9999
2 46581  53.0545  74.2696 0001874  98.4503 261.6698 15.06394296 48725
STARLINK-1728           
1 46582U 20070BC  21229.56895709 -.00000215  00000-0  44656-5 0  9998
2 46582  53.0556  71.6413 0001987  99.8968 260.2245 15.06390328 48816
STARLINK-1729           
1 46583U 20070BD  21229.34689946  .00000857  00000-0  76448-4 0  9993
2 46583  53.0553  92.6411 0002049  80.5767 279.5454 15.06394117 48498
STARLINK-1732           
1 46584U 20070BE  21229.69889894  .00000734  00000-0  68144-4 0  9994
2 46584  53.0538  71.0546 0002013  90.8401 269.2818 15.06405290 48521
STARLINK-1736           
1 46585U 20070BF  21229.71733737 -.00001258  00000-0 -65570-4 0  9996
2 46585  53.0556  70.9820 0001674  97.9226 262.1953 15.06393417 48530
STARLINK-1737           
1 46586U 20070BG  21229.04280543  .00000706  00000-0  66330-4 0  9995
2 46586  53.0550  74.0009 0001970  91.8999 268.2215 15.06397757 48739
STARLINK-1746           
1 46588U 20070BJ  21229.68785307  .00001211  00000-0  10021-3 0  9992
2 46588  53.0540  71.1042 0001919  93.1607 266.9601 15.06398817 48843
STARLINK-1749           
1 46589U 20070BK  21229.61413258 -.00001087  00000-0 -54023-4 0  9993
2 46589  53.0549  71.4298 0002669 106.0922 254.0361 15.06395703 48826
STARLINK-1754           
1 46590U 20070BL  21229.32432315 -.00001047  00000-0 -51451-4 0  9996
2 46590  53.0332 357.8637 0001099  68.8863 291.2243 15.06394193 49826
STARLINK-1755           
1 46591U 20070BM  21229.27134683  .00001311  00000-0  10687-3 0  9995
2 46591  53.0562  72.9763 0001848  91.2860 268.8341 15.06402951 47825
STARLINK-1715           
1 46671U 20073B   21229.54222858  .00000268  00000-0  36896-4 0  9990
2 46671  53.0546 161.7599 0001598  59.2633 300.8513 15.06396421 46083
STARLINK-1716           
1 46672U 20073C   21229.51598951 -.00000694  00000-0 -27677-4 0  9990
2 46672  53.0540 156.8782 0001778  51.6043 308.5105 15.06398419 46157
STARLINK-1717           
1 46673U 20073D   21229.22063145  .00000944  00000-0  82278-4 0  9995
2 46673  53.0544 173.2082 0001425  72.1134 288.0011 15.06389973 46373
STARLINK-1718           
1 46674U 20073E   21229.21004744  .00000746  00000-0  68941-4 0  9996
2 46674  53.0545 158.2530 0001583  54.4124 305.7013 15.06409467 46104
STARLINK-1720           
1 46675U 20073F   21229.53810445 -.00001039  00000-0 -50884-4 0  9990
2 46675  53.0545 156.7818 0001591  59.6194 300.4952 15.06397412 46155
STARLINK-1731           
1 46676U 20073G   21229.19274715  .00078842  00000-0  83526-3 0  9999
2 46676  53.0538 118.6879 0000454 274.8382  85.2580 15.63457299 47147
STARLINK-1766           
1 46677U 20073H   21229.53442073 -.00001004  00000-0 -48497-4 0  9999
2 46677  53.0559 156.8015 0001869  73.0885 287.0309 15.06397482 46150
STARLINK-1773           
1 46679U 20073K   21229.73899228  .00001118  00000-0  94008-4 0  9994
2 46679  53.0545 135.8596 0004995  13.2676 346.8443 15.06391097 46952
STARLINK-1774           
1 46680U 20073L   21229.54225533  .00001037  00000-0  88500-4 0  9997
2 46680  53.0538 171.7538 0001612  62.8016 297.3137 15.06407001 45943
STARLINK-1775           
1 46681U 20073M   21229.31372442  .00000749  00000-0  69171-4 0  9997
2 46681  53.0556 172.7771 0001437  57.2787 302.8340 15.06412714 45903
STARLINK-1776           
1 46682U 20073N   21229.53856947 -.00001013  00000-0 -49131-4 0  9990
2 46682  53.0551 171.7803 0001660  44.0133 316.0988 15.06401249 45941
STARLINK-1778           
1 46683U 20073P   21229.74073719  .00373107  00000-0  14611-2 0  9999
2 46683  53.0517 135.4476 0007634 271.7247  88.2902 15.85436629 46941
STARLINK-1780           
1 46684U 20073Q   21229.52704760 -.00000809  00000-0 -35384-4 0  9993
2 46684  53.0555 156.8370 0001816  56.2731 303.8431 15.06399507 46156
STARLINK-1781           
1 46685U 20073R   21229.18471860  .00000588  00000-0  58355-4 0  9993
2 46685  53.0545 173.3462 0001589  50.1287 309.9842 15.06392187 45887
STARLINK-1783           
1 46686U 20073S   21229.23265063  .00000925  00000-0  80980-4 0  9990
2 46686  53.0545 173.1437 0001674  76.7119 283.4056 15.06400541 46373
STARLINK-1784           
1 46687U 20073T   21229.48465387 -.00000745  00000-0 -31109-4 0  9990
2 46687  53.0553 137.0024 0001831  71.7791 288.3397 15.06397007 46420
STARLINK-1786           
1 46688U 20073U   21229.26211932  .00001109  00000-0  93289-4 0  9992
2 46688  53.0550 173.0231 0001327  52.8460 307.2650 15.06413327 45900
STARLINK-1788           
1 46689U 20073V   21229.31004116  .00002115  00000-0  16095-3 0  9990
2 46689  53.0549 172.8002 0001938  65.6031 294.5160 15.06383821 47154
STARLINK-1789           
1 46690U 20073W   21229.50953443  .00000780  00000-0  71298-4 0  9992
2 46690  53.0548 146.8910 0001898  62.7349 297.3834 15.06397752 46289
STARLINK-1790           
1 46691U 20073X   21229.77399805  .00000722  00000-0  67351-4 0  9999
2 46691  53.0552 155.7138 0001760  56.2466 303.8691 15.06398495 46663
